[{"OBJECT_NAME":"STARLINK-31295","OBJECT_ID":"2024-041X","EPOCH":"2026-03-09T23:06:58.173984","MEAN_MOTION":15.27581908,"ECCENTRICITY":8.333e-5,"INCLINATION":43.0041,"RA_OF_ASC_NODE":309.1303,"ARG_OF_PERICENTER":269.5554,"MEAN_ANOMALY":90.5202,"EPHEMERIS_TYPE":0,"CLASSIFICATION_TYPE":"U","NORAD_CAT_ID":59095,"ELEMENT_SET_NO":999,"REV_AT_EPOCH":11431,"BSTAR":-6.6536373e-5,"MEAN_MOTION_DOT":-2.092e-5,"MEAN_MOTION_DDOT":0},{"OBJECT_NAME":"CZ-6A DEB","OBJECT_ID":"2022-151CC","EPOCH":"2026-03-09T19:21:24.185952","MEAN_MOTION":15.21292269,"ECCENTRICITY":0.00294338,"INCLINATION":98.6347,"RA_OF_ASC_NODE":160.1892,"ARG_OF_PERICENTER":145.6687,"MEAN_ANOMALY":214.6455,"EPHEMERIS_TYPE":0,"CLASSIFICATION_TYPE":"U","NORAD_CAT_ID":54333,"ELEMENT_SET_NO":999,"REV_AT_EPOCH":17712,"BSTAR":0.0073643753,"MEAN_MOTION_DOT":0.00170206,"MEAN_MOTION_DDOT":0}]
